{
  "type": "FeatureCollection",
  "features": [
    {
      "type": "Feature",
      "properties": {
        "norad_id": 34570,
        "name": "COSMOS 2251 DEB",
        "group": "cosmos-2251-debris",
        "lat": -30.413404357229943,
        "lon": -135.2913763525629,
        "alt_km": 1020.202809983436,
        "timestamp": "2025-12-03T10:52:57.850875+00:00",
        "meta_object_name": "COSMOS 2251 DEB",
        "meta_object_id": "1993-036VG",
        "meta_epoch": "2025-12-01T04:52:12.097056",
        "meta_mean_motion": 13.99791144,
        "meta_eccentricity": 0.0190354,
        "meta_inclination": 73.9581,
        "meta_ra_of_asc_node": 238.3445,
        "meta_arg_of_pericenter": 123.4106,
        "meta_mean_anomaly": 29.376,
        "meta_ephemeris_type": 0,
        "meta_classification_type": "U",
        "meta_norad_cat_id": 34570,
        "meta_element_set_no": 999,
        "meta_rev_at_epoch": 85439,
        "meta_bstar": 0.00050145,
        "meta_mean_motion_dot": 8.36e-06,
        "meta_mean_motion_ddot": 0,
        "tle_line1": "1 34570U 93036VG  25335.20291779  .00000836  00000+0  50145-3 0  9999",
        "tle_line2": "2 34570  73.9581 238.3445 0190354 123.4106  29.3760 13.99791144854396"
      },
      "geometry": {
        "type": "Point",
        "coordinates": [
          -135.2913763525629,
          -30.413404357229943
        ]
      }
    },
    {
      "type": "Feature",
      "properties": {
        "norad_id": 34571,
        "name": "COSMOS 2251 DEB",
        "group": "cosmos-2251-debris",
        "lat": -11.942027081084838,
        "lon": -163.63993615098,
        "alt_km": 750.8024199578867,
        "timestamp": "2025-12-03T10:52:57.850885+00:00",
        "meta_object_name": "COSMOS 2251 DEB",
        "meta_object_id": "1993-036VH",
        "meta_epoch": "2025-12-03T00:59:43.529856",
        "meta_mean_motion": 14.48571332,
        "meta_eccentricity": 0.0066654,
        "meta_inclination": 74.0399,
        "meta_ra_of_asc_node": 200.6015,
        "meta_arg_of_pericenter": 237.8664,
        "meta_mean_anomaly": 121.6017,
        "meta_ephemeris_type": 0,
        "meta_classification_type": "U",
        "meta_norad_cat_id": 34571,
        "meta_element_set_no": 999,
        "meta_rev_at_epoch": 87153,
        "meta_bstar": 0.0024878,
        "meta_mean_motion_dot": 9.601e-05,
        "meta_mean_motion_ddot": 0,
        "tle_line1": "1 34571U 93036VH  25337.04147604  .00009601  00000+0  24878-2 0  9993",
        "tle_line2": "2 34571  74.0399 200.6015 0066654 237.8664 121.6017 14.48571332871531"
      },
      "geometry": {
        "type": "Point",
        "coordinates": [
          -163.63993615098,
          -11.942027081084838
        ]
      }
    },
    {
      "type": "Feature",
      "properties": {
        "norad_id": 34572,
        "name": "COSMOS 2251 DEB",
        "group": "cosmos-2251-debris",
        "lat": 9.145200935660975,
        "lon": -49.67688295808058,
        "alt_km": 691.9937625947941,
        "timestamp": "2025-12-03T10:52:57.850896+00:00",
        "meta_object_name": "COSMOS 2251 DEB",
        "meta_object_id": "1993-036VJ",
        "meta_epoch": "2025-12-02T12:52:02.117568",
        "meta_mean_motion": 14.49646773,
        "meta_eccentricity": 0.00640807,
        "meta_inclination": 74.0087,
        "meta_ra_of_asc_node": 134.693,
        "meta_arg_of_pericenter": 210.1075,
        "meta_mean_anomaly": 215.4129,
        "meta_ephemeris_type": 0,
        "meta_classification_type": "U",
        "meta_norad_cat_id": 34572,
        "meta_element_set_no": 999,
        "meta_rev_at_epoch": 87230,
        "meta_bstar": 0.0035968156,
        "meta_mean_motion_dot": 0.00014195,
        "meta_mean_motion_ddot": 0,
        "tle_line1": "1 34572U 93036VJ  25336.53613562  .00014195  00000+0  35968-2 0  9994",
        "tle_line2": "2 34572  74.0087 134.6930 0064080 210.1075 215.4129 14.49646773872304"
      },
      "geometry": {
        "type": "Point",
        "coordinates": [
          -49.67688295808058,
          9.145200935660975
        ]
      }
    },
    {
      "type": "Feature",
      "properties": {
        "norad_id": 34574,
        "name": "COSMOS 2251 DEB",
        "group": "cosmos-2251-debris",
        "lat": 73.92156963609354,
        "lon": 143.4025400390928,
        "alt_km": 605.1365213664421,
        "timestamp": "2025-12-03T10:52:57.850907+00:00",
        "meta_object_name": "COSMOS 2251 DEB",
        "meta_object_id": "1993-036VL",
        "meta_epoch": "2025-12-02T23:51:08.384256",
        "meta_mean_motion": 14.7041827,
        "meta_eccentricity": 0.0067057,
        "meta_inclination": 74.0698,
        "meta_ra_of_asc_node": 62.0077,
        "meta_arg_of_pericenter": 86.3312,
        "meta_mean_anomaly": 89.6167,
        "meta_ephemeris_type": 0,
        "meta_classification_type": "U",
        "meta_norad_cat_id": 34574,
        "meta_element_set_no": 999,
        "meta_rev_at_epoch": 88635,
        "meta_bstar": 0.0013845,
        "meta_mean_motion_dot": 8.658e-05,
        "meta_mean_motion_ddot": 0,
        "tle_line1": "1 34574U 93036VL  25336.99384704  .00008658  00000+0  13845-2 0  9996",
        "tle_line2": "2 34574  74.0698  62.0077 0067057  86.3312  89.6167 14.70418270886350"
      },
      "geometry": {
        "type": "Point",
        "coordinates": [
          143.4025400390928,
          73.92156963609354
        ]
      }
    },
    {
      "type": "Feature",
      "properties": {
        "norad_id": 34576,
        "name": "COSMOS 2251 DEB",
        "group": "cosmos-2251-debris",
        "lat": -22.573149005177815,
        "lon": -17.376735948758125,
        "alt_km": 712.9695954829822,
        "timestamp": "2025-12-03T10:52:57.850919+00:00",
        "meta_object_name": "COSMOS 2251 DEB",
        "meta_object_id": "1993-036VN",
        "meta_epoch": "2025-12-02T22:58:24.323808",
        "meta_mean_motion": 14.55307824,
        "meta_eccentricity": 0.0007848,
        "meta_inclination": 74.0326,
        "meta_ra_of_asc_node": 156.727,
        "meta_arg_of_pericenter": 290.0941,
        "meta_mean_anomaly": 194.7207,
        "meta_ephemeris_type": 0,
        "meta_classification_type": "U",
        "meta_norad_cat_id": 34576,
        "meta_element_set_no": 999,
        "meta_rev_at_epoch": 88324,
        "meta_bstar": 0.0010682,
        "meta_mean_motion_dot": 4.607e-05,
        "meta_mean_motion_ddot": 0,
        "tle_line1": "1 34576U 93036VN  25336.95722597  .00004607  00000+0  10682-2 0  9996",
        "tle_line2": "2 34576  74.0326 156.7270 0007848 290.0941 194.7207 14.55307824883243"
      },
      "geometry": {
        "type": "Point",
        "coordinates": [
          -17.376735948758125,
          -22.573149005177815
        ]
      }
    },
    {
      "type": "Feature",
      "properties": {
        "norad_id": 34577,
        "name": "COSMOS 2251 DEB",
        "group": "cosmos-2251-debris",
        "lat": -40.528396232096846,
        "lon": 17.754089142862828,
        "alt_km": 291.0614607812795,
        "timestamp": "2025-12-03T10:52:57.850930+00:00",
        "meta_object_name": "COSMOS 2251 DEB",
        "meta_object_id": "1993-036VP",
        "meta_epoch": "2025-12-02T20:23:47.510880",
        "meta_mean_motion": 15.92378557,
        "meta_eccentricity": 0.0006177,
        "meta_inclination": 73.987,
        "meta_ra_of_asc_node": 184.9572,
        "meta_arg_of_pericenter": 141.1239,
        "meta_mean_anomaly": 219.0441,
        "meta_ephemeris_type": 0,
        "meta_classification_type": "U",
        "meta_norad_cat_id": 34577,
        "meta_element_set_no": 999,
        "meta_rev_at_epoch": 89371,
        "meta_bstar": 0.0077782,
        "meta_mean_motion_dot": 0.02483883,
        "meta_mean_motion_ddot": 0.0042105,
        "tle_line1": "1 34577U 93036VP  25336.84985545  .02483883  42105-2  77782-2 0  9997",
        "tle_line2": "2 34577  73.9870 184.9572 0006177 141.1239 219.0441 15.92378557893711"
      },
      "geometry": {
        "type": "Point",
        "coordinates": [
          17.754089142862828,
          -40.528396232096846
        ]
      }
    },
    {
      "type": "Feature",
      "properties": {
        "norad_id": 34579,
        "name": "COSMOS 2251 DEB",
        "group": "cosmos-2251-debris",
        "lat": 36.92654258976124,
        "lon": -106.41072372448316,
        "alt_km": 737.3006309257444,
        "timestamp": "2025-12-03T10:52:57.850940+00:00",
        "meta_object_name": "COSMOS 2251 DEB",
        "meta_object_id": "1993-036VR",
        "meta_epoch": "2025-12-03T04:45:53.520768",
        "meta_mean_motion": 14.45258986,
        "meta_eccentricity": 0.0027518,
        "meta_inclination": 74.0527,
        "meta_ra_of_asc_node": 241.6543,
        "meta_arg_of_pericenter": 311.7288,
        "meta_mean_anomaly": 200.9657,
        "meta_ephemeris_type": 0,
        "meta_classification_type": "U",
        "meta_norad_cat_id": 34579,
        "meta_element_set_no": 999,
        "meta_rev_at_epoch": 88036,
        "meta_bstar": 0.00059992,
        "meta_mean_motion_dot": 2.088e-05,
        "meta_mean_motion_ddot": 0,
        "tle_line1": "1 34579U 93036VR  25337.19853612  .00002088  00000+0  59992-3 0  9998",
        "tle_line2": "2 34579  74.0527 241.6543 0027518 311.7288 200.9657 14.45258986880369"
      },
      "geometry": {
        "type": "Point",
        "coordinates": [
          -106.41072372448316,
          36.92654258976124
        ]
      }
    }
  ]
}